{
    "links": {
        "self": "http://www.neowsapp.com/rest/v1/neo/3757743?api_key=iIulBulltgU6a56xZRHN4H3l9WmuAYTsLGpBGhQ2"
    },
    "id": "3757743",
    "neo_reference_id": "3757743",
    "name": "(2016 QG10)",
    "designation": "2016 QG10",
    "nasa_jpl_url": "http://ssd.jpl.nasa.gov/sbdb.cgi?sstr=3757743",
    "absolute_magnitude_h": 24.5,
    "estimated_diameter": {
        "kilometers": {
            "estimated_diameter_min": 0.0334622374,
            "estimated_diameter_max": 0.0748238376
        },
        "meters": {
            "estimated_diameter_min": 33.4622374455,
            "estimated_diameter_max": 74.8238376074
        },
        "miles": {
            "estimated_diameter_min": 0.0207924639,
            "estimated_diameter_max": 0.0464933628
        },
        "feet": {
            "estimated_diameter_min": 109.7842471007,
            "estimated_diameter_max": 245.4850393757
        }
    },
    "is_potentially_hazardous_asteroid": false,
    "close_approach_data": [
        {
            "close_approach_date": "1990-08-30",
            "close_approach_date_full": "1990-Aug-30 15:43",
            "epoch_date_close_approach": 652030980000,
            "relative_velocity": {
                "kilometers_per_second": "5.480999526",
                "kilometers_per_hour": "19731.5982935805",
                "miles_per_hour": "12260.4478396973"
            },
            "miss_distance": {
                "astronomical": "0.23573795",
                "lunar": "91.70206255",
                "kilometers": "35265895.1981665",
                "miles": "21913211.1470377"
            },
            "orbiting_body": "Earth"
        },
        {
            "close_approach_date": "2003-08-27",
            "close_approach_date_full": "2003-Aug-27 04:03",
            "epoch_date_close_approach": 1061956980000,
            "relative_velocity": {
                "kilometers_per_second": "4.6262566291",
                "kilometers_per_hour": "16654.5238645845",
                "miles_per_hour": "10348.4734535247"
            },
            "miss_distance": {
                "astronomical": "0.1594529776",
                "lunar": "62.0272082864",
                "kilometers": "23853825.814117712",
                "miles": "14822080.0519079456"
            },
            "orbiting_body": "Earth"
        },
        {
            "close_approach_date": "2016-08-23",
            "close_approach_date_full": "2016-Aug-23 22:29",
            "epoch_date_close_approach": 1471991340000,
            "relative_velocity": {
                "kilometers_per_second": "4.4612645178",
                "kilometers_per_hour": "16060.5522639641",
                "miles_per_hour": "9979.4025997948"
            },
            "miss_distance": {
                "astronomical": "0.1569797763",
                "lunar": "61.0651329807",
                "kilometers": "23483840.167556481",
                "miles": "14592181.6316661978"
            },
            "orbiting_body": "Earth"
        },
        {
            "close_approach_date": "2029-08-19",
            "close_approach_date_full": "2029-Aug-19 04:11",
            "epoch_date_close_approach": 1881807060000,
            "relative_velocity": {
                "kilometers_per_second": "4.9194430978",
                "kilometers_per_hour": "17709.9951520194",
                "miles_per_hour": "11004.3022654312"
            },
            "miss_distance": {
                "astronomical": "0.2295962726",
                "lunar": "89.3129500414",
                "kilometers": "34347113.340899362",
                "miles": "21342306.5741287156"
            },
            "orbiting_body": "Earth"
        }
    ],
    "orbital_data": {
        "orbit_id": "9",
        "orbit_determination_date": "2017-04-06 08:24:25",
        "first_observation_date": "2016-08-26",
        "last_observation_date": "2016-09-22",
        "data_arc_in_days": 27,
        "observations_used": 32,
        "orbit_uncertainty": "6",
        "minimum_orbit_intersection": ".149584",
        "jupiter_tisserand_invariant": "4.175",
        "epoch_osculation": "2459000.5",
        "eccentricity": ".3089891128710303",
        "semi_major_axis": "1.675984393411398",
        "inclination": "7.29817910686223",
        "ascending_node_longitude": "326.9813403052154",
        "orbital_period": "792.5075023187312",
        "perihelion_distance": "1.158123462505519",
        "perihelion_argument": "10.43808921005003",
        "aphelion_distance": "2.193845324317278",
        "perihelion_time": "2459219.294912630102",
        "mean_anomaly": "260.6114537510607",
        "mean_motion": ".4542543748124859",
        "equinox": "J2000",
        "orbit_class": {
            "orbit_class_type": "AMO",
            "orbit_class_description": "Near-Earth asteroid orbits similar to that of 1221 Amor",
            "orbit_class_range": "1.017 AU < q (perihelion) < 1.3 AU"
        }
    },
    "is_sentry_object": false
}